IRIDIUM 112             
1 41925U 17003J   25288.45535068  .00000253  00000+0  83298-4 0  9996
2 41925  86.4030 190.5368 0002243  87.9660 272.1793 14.34217811458193
IRIDIUM 111             
1 41926U 17003K   25288.23335949  .00000141  00000+0  43145-4 0  9992
2 41926  86.4037 190.6943 0002254  82.4170 277.7282 14.34217560458149
IRIDIUM 113             
1 42803U 17039A   25288.42262943  .00000090  00000+0  25209-4 0  9994
2 42803  86.3951  64.4666 0002272  95.1153 265.0302 14.34218270436104
IRIDIUM 123             
1 42804U 17039B   25288.88271897  .00000046  00000+0  94690-5 0  9995
2 42804  86.3916  95.7749 0002189  82.0420 278.1024 14.34217574434935
IRIDIUM 120             
1 42805U 17039C   25288.13720841  .00000283  00000+0  93995-4 0  9991
2 42805  86.3941  64.4000 0001865  88.1844 271.9566 14.34219956436057
IRIDIUM 115             
1 42806U 17039D   25288.79669629  .00000638  00000+0  18368-3 0  9994
2 42806  86.4476  64.2192 0002159  75.4178 284.7262 14.43275188439011
IRIDIUM 118             
1 42807U 17039E   25288.70512651  .00000060  00000+0  14367-4 0  9993
2 42807  86.3914  95.8483 0002263  93.5575 266.5880 14.34217733434908
IRIDIUM 117             
1 42808U 17039F   25288.51484870 -.00000013  00000+0 -11733-4 0  9998
2 42808  86.3915  95.8879 0002123  84.4710 275.6728 14.34217369434901
